# From NK 1615
P/1996 R2 (Lagerkvist),e,2.5993,40.0536,333.4618,3.773298,0.1344691,0.31442251,279.9196,10/28.0/2024,2000,g 11.5,4.0
# From MPC 75703
P/1998 VS24 (LINEAR),e,5.0285,159.0526,244.8154,4.521665,0.1025077,0.24367609,252.9431,10/28.0/2024,2000,g 13.0,2.0
# From unp
P/1999 D1 (Hermann),e,21.2542,348.7585,173.8347,5.786206,0.0708130,0.71320712,309.5608,10/28.0/2024,2000,g  9.0,4.0
# From unp
P/1999 R1 (SOHO),e,11.4276,351.6010,56.8624,2.508442,0.2480836,0.97997753,0.0000,08/21.0418/2023,2000,g  9.0,4.0
# From NK 731
P/1999 RO28 (LONEOS),e,7.5667,137.8513,231.3453,3.425617,0.1554518,0.67228101,302.9073,10/28.0/2024,2000,g 20.0,2.0
# From MPC 75704
P/1999 XN120 (Catalina),e,5.0295,285.2511,161.6601,4.180232,0.1153197,0.21109691,311.5531,10/28.0/2024,2000,g 13.5,2.0
# From unp
P/2000 QJ46 (LINEAR),e,4.4327,158.0975,222.2794,5.790706,0.0707305,0.67544231,253.9223,10/28.0/2024,2000,g  9.0,4.0
# From NK 744
P/2000 R2 (LINEAR),e,11.6796,160.2808,176.5882,3.468693,0.1525651,0.53072752,298.9307,10/28.0/2024,2000,g 18.0,4.0
# From unp
P/2001 BB50 (LINEAR-NEAT),e,10.3270,351.1492,193.3400,5.752660,0.0714333,0.58606213,266.8365,10/28.0/2024,2000,g 13.0,4.0
# From MPC 43019
P/2001 H5 (NEAT),e,8.3705,328.6572,224.6127,6.095294,0.0654956,0.59872524,216.7501,10/28.0/2024,2000,g 12.0,4.0
# From MPEC 2023-UR6
P/2002 EJ57 (LINEAR),e,4.9861,330.2426,167.2612,6.456412,0.0600782,0.59355697,139.5579,10/28.0/2024,2000,g 12.5,4.0
# From MPC 75007
C/2002 VQ94 (LINEAR),e,70.6905,35.1386,99.8149,185.8780,0.0003889,0.96361677,2.6589,10/28.0/2024,2000,g  9.5,2.0
# From MPC 50354
P/2003 F2 (NEAT),e,11.6690,358.9015,192.5574,6.514072,0.0592823,0.54142892,107.2589,10/28.0/2024,2000,g 16.5,2.0
# From MPC 50139
P/2003 QX29 (NEAT),e,11.3994,264.5333,37.6649,8.002615,0.0435368,0.47154796,347.6743,10/28.0/2024,2000,g  8.5,4.0
# From MPC105235
P/2003 T12 (SOHO),e,11.0251,174.5772,219.7850,2.584024,0.2372790,0.77025574,27.5824,10/28.0/2024,2000,g 17.0,4.0
# From unp
P/2003 U3 (NEAT),e,7.0160,347.9278,357.0405,5.042393,0.0870460,0.51057783,317.9007,10/28.0/2024,2000,g 12.0,4.0
# From MPEC 2022-YN2
P/2004 FY140 (LINEAR),e,2.1624,327.2640,254.1523,4.969769,0.0889610,0.19244002,284.6760,10/28.0/2024,2000,g 12.5,2.0
# From unp
P/2004 H2 (Larsen),e,11.7749,131.3750,104.6886,4.526650,0.1023384,0.41683437,45.9825,10/28.0/2024,2000,g  9.0,4.0
# From MPC 53304
P/2004 R3 (LINEAR-NEAT),e,12.7965,305.1208,37.3974,4.750845,0.0951805,0.25437195,108.2286,10/28.0/2024,2000,g 14.5,4.0
# From MPC 75705
P/2004 V5 (LINEAR-Hill),e,19.3441,47.7414,87.2766,8.028637,0.0433253,0.44777347,316.0950,10/28.0/2024,2000,g  8.0,4.0
# From MPC 75705
P/2004 V5-B (LINEAR-Hill),e,19.3442,47.7417,87.2803,8.028970,0.0433226,0.44779444,316.0558,10/28.0/2024,2000,g  8.0,4.0
# From MPC 54164
P/2005 E1 (Tubbiolo),e,4.2610,335.5127,193.8831,7.065573,0.0524787,0.37689671,20.7902,10/28.0/2024,2000,g 10.0,4.0
# From unp
P/2005 GF8 (LONEOS),e,1.1658,312.8353,285.3997,5.756996,0.0713527,0.51382946,133.3899,10/28.0/2024,2000,g  9.0,4.0
# From MPC 79019
P/2005 J1 (McNaught),e,31.7407,268.8003,338.9188,3.573890,0.1458788,0.56921953,322.5498,10/28.0/2024,2000,g 16.5,4.0
# From MPC 74246
P/2005 L1 (McNaught),e,7.8934,132.1195,155.8754,3.979102,0.1241728,0.23477231,132.4390,10/28.0/2024,2000,g  9.5,4.0
# From MPC 75706
P/2005 S2 (Skiff),e,3.1376,161.3448,229.8751,7.988701,0.0436506,0.19876055,292.3841,10/28.0/2024,2000,g  7.5,4.0
# From MPC 73461
P/2005 T3 (Read),e,6.2298,27.6343,6.9501,7.581209,0.0472168,0.17502672,328.8949,10/28.0/2024,2000,g  9.0,4.0
# From MPC 73461
P/2005 T4 (SWAN),e,160.2720,25.8985,41.8509,9.352869,0.0344577,0.93041361,239.3987,10/28.0/2024,2000,g 15.0,4.0
# From MPC 75706
P/2005 T5 (Broughton),e,21.3832,57.0668,304.7609,7.263545,0.0503479,0.55205922,348.4270,10/28.0/2024,2000,g 11.0,4.0
# From MPEC 2024-DD5
P/2005 XR132 (Spacewatch),e,14.4752,265.3951,240.7679,3.757876,0.1352977,0.43261837,193.5977,10/28.0/2024,2000,g 16.0,4.0
# From unp
P/2005 Y2 (McNaught),e,19.1537,93.8000,193.3617,6.289732,0.0624821,0.46436063,92.4683,10/28.0/2024,2000,g  9.0,4.0
# From MPEC 2024-JU4
P/2006 AH2 (Sheppard-Tholen),e,10.0161,261.6455,196.0405,6.847983,0.0549997,0.41712266,23.6565,10/28.0/2024,2000,g 13.0,4.0
# From unp
P/2006 F4 (Spacewatch),e,12.4280,183.5451,31.3986,3.487461,0.1513353,0.35013609,286.7091,10/28.0/2024,2000,g  9.0,4.0
# From MPC 75707
P/2006 HR30 (Siding Spring),e,31.9398,309.7829,117.4780,7.800072,0.0452435,0.84366033,294.7588,10/28.0/2024,2000,g 11.0,4.0
# From unp
P/2006 XG16 (Spacewatch),e,9.0627,78.4046,40.9158,3.638383,0.1420174,0.41929858,199.9582,10/28.0/2024,2000,g  9.0,4.0
# From MPC 75707
P/2007 C2 (Catalina),e,8.6124,275.2409,180.1479,7.014842,0.0530490,0.47360523,332.9692,10/28.0/2024,2000,g 10.0,4.0
# From MPC 84315
C/2007 D1 (LINEAR),e,41.5087,171.1027,339.7043,1176,0.0000244,0.99256670,0.0000,06/11.7899/2007,2000,g  3.5,4.0
# From MPEC 2024-GJ3
P/2007 K2 (Gibbs),e,7.6074,188.5314,347.1584,7.346749,0.0494950,0.68586354,319.3610,10/28.0/2024,2000,g 14.0,4.0
# From MPC 60925
P/2007 Q2 (Gilmore),e,10.1967,172.2129,162.8691,5.661209,0.0731712,0.66908287,104.7932,10/28.0/2024,2000,g 16.0,4.0
# From MPC 73462
P/2007 S1 (Zhao),e,5.9640,141.3312,245.2471,3.817731,0.1321284,0.33822391,99.4055,10/28.0/2024,2000,g 13.0,4.0
# From MPEC 2024-GJ3
C/2007 S2 (Lemmon),e,16.9073,296.1227,210.1572,12.49831,0.0223063,0.55633754,131.6668,10/28.0/2024,2000,g  6.5,4.0
# From MPC 61994
P/2007 T2 (Kowalski),e,9.7503,3.3876,359.6708,3.043654,0.1856142,0.78558094,64.1128,10/28.0/2024,2000,g 18.5,4.0
# From MPEC 2024-GJ3
C/2008 E1 (Catalina),e,34.8661,188.9692,270.2950,10.76489,0.0279055,0.55265602,165.0475,10/28.0/2024,2000,g  7.0,4.0
# From MPC 64114
P/2008 O3 (Boattini),e,32.3244,47.6083,341.1976,8.209099,0.0419045,0.69644016,250.5683,10/28.0/2024,2000,g 13.0,4.0
# From MPC 75710
P/2008 Y3 (McNaught),e,38.7788,262.8443,238.0746,8.040925,0.0432260,0.44765772,250.4111,10/28.0/2024,2000,g  8.5,4.0
# From MPC 75710
P/2009 B1 (Boattini),e,22.2580,297.1070,128.9726,6.729578,0.0564576,0.63605916,325.5417,10/28.0/2024,2000,g 13.0,4.0
# From MPC 66466
C/2009 G1 (STEREO),e,108.1418,120.8205,175.5332,463.0369,0.0000989,0.99753931,0.0000,04/18.0072/2009,2000,g  9.0,4.0
# From MPC 75710
P/2009 O3 (Hill),e,16.2635,183.7153,154.4545,7.769618,0.0455098,0.68656572,256.2305,10/28.0/2024,2000,g 12.5,4.0
# From MPC 68902
P/2009 Q5 (McNaught),e,40.9642,160.2364,209.1945,7.425339,0.0487113,0.60958757,268.5848,10/28.0/2024,2000,g 10.0,4.0
# From unp
P/2009 QG31 (La Sagra),e,5.0509,346.1172,5.6905,3.570107,0.1461107,0.39931461,81.5563,10/28.0/2024,2000,g 14.0,4.0
# From MPC112389
P/2009 T2 (La Sagra),e,27.6095,216.3425,215.9584,7.710305,0.0460359,0.76745522,248.7443,10/28.0/2024,2000,g 14.0,4.0
# From MPC105235
P/2009 WX51 (Catalina),e,9.5959,31.5310,118.2781,3.082529,0.1821140,0.73954490,262.7255,10/28.0/2024,2000,g 19.0,2.0
# From MPC 74247
P/2009 Y2 (Kowalski),e,29.9740,262.0865,172.2020,6.541922,0.0589042,0.63744217,314.9582,10/28.0/2024,2000,g 13.0,4.0
# From MPEC 2024-UA9
P/2010 A3 (Hill),e,14.8154,63.5879,42.2616,6.101502,0.0653957,0.73433975,351.2824,10/28.0/2024,2000,g 14.0,4.0
# From MPC 75008
P/2010 C1 (Scotti),e,9.1159,141.6057,2.9868,7.124375,0.0518303,0.26318881,286.0582,10/28.0/2024,2000,g  9.5,4.0
# From MPC 75008
P/2010 D2 (WISE),e,57.1279,319.8737,119.9696,6.719902,0.0565796,0.45177765,304.3134,10/28.0/2024,2000,g 16.0,4.0
# From MPC 75009
P/2010 E2 (Jarnac),e,15.4115,177.8111,8.2299,8.637338,0.0388270,0.72033258,207.3151,10/28.0/2024,2000,g 14.0,4.0
# From MPC 72851
P/2010 H2 (Vales),e,14.2796,64.1869,128.0493,3.832720,0.1313541,0.19744878,342.5764,10/28.0/2024,2000,g  6.0,4.0
# From MPC 70361
P/2010 H3 (SOHO),e,23.1545,77.1920,26.0576,3.035736,0.1863409,0.98555308,0.0000,05/25.1859/2026,2000,g 20.0,2.0
# From MPEC 2024-GJ3
P/2010 H4 (Scotti),e,2.3178,44.7400,179.1239,6.614801,0.0579334,0.26671423,305.7631,10/28.0/2024,2000,g 10.5,4.0
# From MPC 74637
P/2010 H5 (Scotti),e,14.0556,24.5725,174.6243,7.174834,0.0512845,0.15413968,274.5627,10/28.0/2024,2000,g 13.0,2.0
# From MPC 98558
P/2010 J3 (McMillan),e,13.2311,106.5323,157.4558,8.987115,0.0365825,0.72422363,189.8932,10/28.0/2024,2000,g 11.0,4.0
# From MPC 84315
P/2010 JC81 (WISE),e,38.7973,30.8677,12.4835,8.102739,0.0427323,0.77826337,210.4954,10/28.0/2024,2000,g  9.0,4.0
# From MPEC 2024-H77
A/2010 LN135,e,64.5638,184.7953,181.5619,27449,0.0000002,0.99993650,0.0000,05/25.7357/2011,2000,g 14.0,2.0
# From MPC 74248
P/2010 T2 (PANSTARRS),e,7.8762,57.9241,350.7661,5.621611,0.0739457,0.32845053,17.9571,10/28.0/2024,2000,g 11.5,4.0
# From MPC 82316
P/2010 U1 (Boattini),e,8.2272,280.8067,86.4916,6.489545,0.0596187,0.24872739,319.3788,10/28.0/2024,2000,g  9.5,4.0
# From MPEC 2023-J95
C/2010 U3 (Boattini),e,55.5608,42.9892,88.0598,8181,0.0000013,0.99896855,0.0000,02/27.1408/2019,2000,g  1.0,4.0
# From MPC 79021
P/2010 UH55 (Spacewatch),e,8.0366,232.8608,225.2430,6.650649,0.0574656,0.56462929,284.5339,10/28.0/2024,2000,g 11.0,4.0
# From MPC 84021
P/2011 C2 (Gibbs),e,10.8915,11.9555,160.2784,7.411386,0.0488489,0.27048044,230.1870,10/28.0/2024,2000,g  9.0,4.0
# From MPEC 2013-Y32
P/2011 CR42 (Catalina),e,8.4591,58.7140,172.6527,3.511199,0.1498031,0.28004911,348.6035,10/28.0/2024,2000,g  9.0,4.0
# From MPC 79866
P/2011 FR143 (Lemmon),e,15.9652,190.8569,349.7096,6.877316,0.0546482,0.45211554,274.8254,10/28.0/2024,2000,g 14.0,2.0
# From MPC 82317
P/2011 JB15 (Spacewatch-Boattini),e,19.1281,153.5801,110.8034,7.377901,0.0491818,0.31461611,230.4671,10/28.0/2024,2000,g  9.0,4.0
# From MPC 87913
P/2011 N1 (ASH),e,35.7872,77.6296,330.4623,6.236403,0.0632853,0.54556301,286.6728,10/28.0/2024,2000,g 11.5,4.0
# From MPEC 2022-ED3
P/2011 P1 (McNaught),e,5.6541,4.2742,349.1991,7.459433,0.0483777,0.32679521,251.3993,10/28.0/2024,2000,g  9.0,4.0
# From MPEC 2022-HC2
P/2011 S1 (Gibbs),e,2.6890,218.8958,192.8258,8.591622,0.0391373,0.20146311,145.5239,10/28.0/2024,2000,g  8.0,4.0
# From MPEC 2024-UA9
